{"type": "FeatureCollection", "features": [ {"type": "Feature", "properties": {"norad_id": 34117, "name": "COSMOS 2251 DEB", "group": "cosmos-2251-debris", "lat": -60.291170968487535, "lon": -69.46702013526239, "alt_km": 770.4006928873187, "timestamp": "2025-12-25T07:00:34.441975+00:00", "meta": {"OBJECT_NAME": "COSMOS 2251 DEB", "OBJECT_ID": "1993-036KN", "EPOCH": "2025-12-24T21:18:15.195168", "MEAN_MOTION": 14.40060297, "ECCENTRICITY": 0.0055073, "INCLINATION": 74.0393, "RA_OF_ASC_NODE": 321.3833, "ARG_OF_PERICENTER": 34.3721, "MEAN_ANOMALY": 326.0977, "EPHEMERIS_TYPE": 0, "CLASSIFICATION_TYPE": "U", "NORAD_CAT_ID": 34117, "ELEMENT_SET_NO": 999, "REV_AT_EPOCH": 88298, "BSTAR": 0.00071298822, "MEAN_MOTION_DOT": 2.263e-05, "MEAN_MOTION_DDOT": 0}, "tle": {"line1": "1 34117U 93036KN  25358.88767587  .00002263  00000+0  71299-3 0  9999", "line2": "2 34117  74.0393 321.3833 0055073  34.3721 326.0977 14.40060297882989"}}, "geometry": {"type": "Point", "coordinates": [-69.46702013526239, -60.291170968487535]}}, {"type": "Feature", "properties": {"norad_id": 34118, "name": "COSMOS 2251 DEB", "group": "cosmos-2251-debris", "lat": -64.86703367893655, "lon": -173.95755359209767, "alt_km": 612.8006569218687, "timestamp": "2025-12-25T07:00:34.441986+00:00", "meta": {"OBJECT_NAME": "COSMOS 2251 DEB", "OBJECT_ID": "1993-036KP", "EPOCH": "2025-12-24T17:08:02.694048", "MEAN_MOTION": 14.94319933, "ECCENTRICITY": 0.00600995, "INCLINATION": 73.9505, "RA_OF_ASC_NODE": 225.0653, "ARG_OF_PERICENTER": 52.1796, "MEAN_ANOMALY": 9.1773, "EPHEMERIS_TYPE": 0, "CLASSIFICATION_TYPE": "U", "NORAD_CAT_ID": 34118, "ELEMENT_SET_NO": 999, "REV_AT_EPOCH": 89355, "BSTAR": 0.0014475542, "MEAN_MOTION_DOT": 0.00016124, "MEAN_MOTION_DDOT": 0}, "tle": {"line1": "1 34118U 93036KP  25358.71392007  .00016124  00000+0  14476-2 0  9997", "line2": "2 34118  73.9505 225.0653 0060099  52.1796   9.1773 14.94319933893558"}}, "geometry": {"type": "Point", "coordinates": [-173.95755359209767, -64.86703367893655]}}, {"type": "Feature", "properties": {"norad_id": 34120, "name": "COSMOS 2251 DEB", "group": "cosmos-2251-debris", "lat": -12.014768056484288, "lon": -169.0248824694047, "alt_km": 788.7512748529007, "timestamp": "2025-12-25T07:00:34.441996+00:00", "meta": {"OBJECT_NAME": "COSMOS 2251 DEB", "OBJECT_ID": "1993-036KR", "EPOCH": "2025-12-24T15:55:11.146944", "MEAN_MOTION": 13.98696608, "ECCENTRICITY": 0.01824743, "INCLINATION": 73.9901, "RA_OF_ASC_NODE": 195.5672, "ARG_OF_PERICENTER": 20.6119, "MEAN_ANOMALY": 43.3989, "EPHEMERIS_TYPE": 0, "CLASSIFICATION_TYPE": "U", "NORAD_CAT_ID": 34120, "ELEMENT_SET_NO": 999, "REV_AT_EPOCH": 86147, "BSTAR": 0.0002851631, "MEAN_MOTION_DOT": 4.49e-06, "MEAN_MOTION_DDOT": 0}, "tle": {"line1": "1 34120U 93036KR  25358.66332346  .00000449  00000+0  28516-3 0  9998", "line2": "2 34120  73.9901 195.5672 0182474  20.6119  43.3989 13.98696608861479"}}, "geometry": {"type": "Point", "coordinates": [-169.0248824694047, -12.014768056484288]}}, {"type": "Feature", "properties": {"norad_id": 34121, "name": "COSMOS 2251 DEB", "group": "cosmos-2251-debris", "lat": -68.90619325373251, "lon": -56.25024299219413, "alt_km": 765.3729444825931, "timestamp": "2025-12-25T07:00:34.442006+00:00", "meta": {"OBJECT_NAME": "COSMOS 2251 DEB", "OBJECT_ID": "1993-036KS", "EPOCH": "2025-12-24T16:33:12.674592", "MEAN_MOTION": 13.91973182, "ECCENTRICITY": 0.02410219, "INCLINATION": 73.9923, "RA_OF_ASC_NODE": 76.6915, "ARG_OF_PERICENTER": 279.6475, "MEAN_ANOMALY": 200.2437, "EPHEMERIS_TYPE": 0, "CLASSIFICATION_TYPE": "U", "NORAD_CAT_ID": 34121, "ELEMENT_SET_NO": 999, "REV_AT_EPOCH": 85291, "BSTAR": 0.0012623328, "MEAN_MOTION_DOT": 2.017e-05, "MEAN_MOTION_DDOT": 0}, "tle": {"line1": "1 34121U 93036KS  25358.68973003  .00002017  00000+0  12623-2 0  9996", "line2": "2 34121  73.9923  76.6915 0241021 279.6475 200.2437 13.91973182852917"}}, "geometry": {"type": "Point", "coordinates": [-56.25024299219413, -68.90619325373251]}}, {"type": "Feature", "properties": {"norad_id": 34122, "name": "COSMOS 2251 DEB", "group": "cosmos-2251-debris", "lat": -28.746925915494284, "lon": -76.4823978374072, "alt_km": 726.2659432407345, "timestamp": "2025-12-25T07:00:34.442016+00:00", "meta": {"OBJECT_NAME": "COSMOS 2251 DEB", "OBJECT_ID": "1993-036KT", "EPOCH": "2025-12-24T17:29:51.170208", "MEAN_MOTION": 14.6518112, "ECCENTRICITY": 0.0085061, "INCLINATION": 74.0363, "RA_OF_ASC_NODE": 95.5664, "ARG_OF_PERICENTER": 348.9969, "MEAN_ANOMALY": 133.1578, "EPHEMERIS_TYPE": 0, "CLASSIFICATION_TYPE": "U", "NORAD_CAT_ID": 34122, "ELEMENT_SET_NO": 999, "REV_AT_EPOCH": 88860, "BSTAR": 0.0010514303, "MEAN_MOTION_DOT": 5.939e-05, "MEAN_MOTION_DDOT": 0}, "tle": {"line1": "1 34122U 93036KT  25358.72906447  .00005939  00000+0  10514-2 0  9993", "line2": "2 34122  74.0363  95.5664 0085061 348.9969 133.1578 14.65181120888607"}}, "geometry": {"type": "Point", "coordinates": [-76.4823978374072, -28.746925915494284]}}, {"type": "Feature", "properties": {"norad_id": 34127, "name": "COSMOS 2251 DEB", "group": "cosmos-2251-debris", "lat": 45.24732436917757, "lon": 37.79540783193436, "alt_km": 863.057041500635, "timestamp": "2025-12-25T07:00:34.442027+00:00", "meta": {"OBJECT_NAME": "COSMOS 2251 DEB", "OBJECT_ID": "1993-036KY", "EPOCH": "2025-12-24T12:55:14.413728", "MEAN_MOTION": 14.3164566, "ECCENTRICITY": 0.01146434, "INCLINATION": 74.1798, "RA_OF_ASC_NODE": 22.5388, "ARG_OF_PERICENTER": 220.1374, "MEAN_ANOMALY": 264.7473, "EPHEMERIS_TYPE": 0, "CLASSIFICATION_TYPE": "U", "NORAD_CAT_ID": 34127, "ELEMENT_SET_NO": 999, "REV_AT_EPOCH": 86940, "BSTAR": 0.001520938, "MEAN_MOTION_DOT": 4.333e-05, "MEAN_MOTION_DDOT": 0}, "tle": {"line1": "1 34127U 93036KY  25358.53836127  .00004333  00000+0  15209-2 0  9997", "line2": "2 34127  74.1798  22.5388 0114643 220.1374 264.7473 14.31645660869407"}}, "geometry": {"type": "Point", "coordinates": [37.79540783193436, 45.24732436917757]}}, {"type": "Feature", "properties": {"norad_id": 34128, "name": "COSMOS 2251 DEB", "group": "cosmos-2251-debris", "lat": 13.914720501753045, "lon": 87.02200336396453, "alt_km": 577.361493255511, "timestamp": "2025-12-25T07:00:34.442038+00:00", "meta": {"OBJECT_NAME": "COSMOS 2251 DEB", "OBJECT_ID": "1993-036KZ", "EPOCH": "2025-12-24T20:58:40.497312", "MEAN_MOTION": 15.01612252, "ECCENTRICITY": 0.00259906, "INCLINATION": 73.999, "RA_OF_ASC_NODE": 271.952, "ARG_OF_PERICENTER": 21.2594, "MEAN_ANOMALY": 45.372, "EPHEMERIS_TYPE": 0, "CLASSIFICATION_TYPE": "U", "NORAD_CAT_ID": 34128, "ELEMENT_SET_NO": 999, "REV_AT_EPOCH": 89349, "BSTAR": 0.0014650244, "MEAN_MOTION_DOT": 0.00019158, "MEAN_MOTION_DDOT": 0}, "tle": {"line1": "1 34128U 93036KZ  25358.87407983  .00019158  00000+0  14650-2 0  9999", "line2": "2 34128  73.9990 271.9520 0025990  21.2594  45.3720 15.01612252893490"}}, "geometry": {"type": "Point", "coordinates": [87.02200336396453, 13.914720501753045]}}, {"type": "Feature", "properties": {"norad_id": 34129, "name": "COSMOS 2251 DEB", "group": "cosmos-2251-debris", "lat": 8.209101675141437, "lon": -42.67303304423204, "alt_km": 622.1247828821524, "timestamp": "2025-12-25T07:00:34.442048+00:00", "meta": {"OBJECT_NAME": "COSMOS 2251 DEB", "OBJECT_ID": "1993-036LA", "EPOCH": "2025-12-24T21:12:38.879712", "MEAN_MOTION": 14.75955009, "ECCENTRICITY": 0.0033513, "INCLINATION": 74.0359, "RA_OF_ASC_NODE": 315.7589, "ARG_OF_PERICENTER": 33.644, "MEAN_ANOMALY": 326.6852, "EPHEMERIS_TYPE": 0, "CLASSIFICATION_TYPE": "U", "NORAD_CAT_ID": 34129, "ELEMENT_SET_NO": 999, "REV_AT_EPOCH": 61477, "BSTAR": 0.0016543775, "MEAN_MOTION_DOT": 0.00011471, "MEAN_MOTION_DDOT": 0}, "tle": {"line1": "1 34129U 93036LA  25358.88378333  .00011471  00000+0  16544-2 0  9991", "line2": "2 34129  74.0359 315.7589 0033513  33.6440 326.6852 14.75955009614774"}}, "geometry": {"type": "Point", "coordinates": [-42.67303304423204, 8.209101675141437]}}, {"type": "Feature", "properties": {"norad_id": 34136, "name": "COSMOS 2251 DEB", "group": "cosmos-2251-debris", "lat": -4.261067129562035, "lon": 16.651988616419136, "alt_km": 678.6229109354017, "timestamp": "2025-12-25T07:00:34.442058+00:00", "meta": {"OBJECT_NAME": "COSMOS 2251 DEB", "OBJECT_ID": "1993-036LH", "EPOCH": "2025-12-24T12:05:28.070304", "MEAN_MOTION": 14.8015032, "ECCENTRICITY": 0.00850269, "INCLINATION": 74.0198, "RA_OF_ASC_NODE": 19.4295, "ARG_OF_PERICENTER": 139.1728, "MEAN_ANOMALY": 338.5493, "EPHEMERIS_TYPE": 0, "CLASSIFICATION_TYPE": "U", "NORAD_CAT_ID": 34136, "ELEMENT_SET_NO": 999, "REV_AT_EPOCH": 90184, "BSTAR": 0.00037682536, "MEAN_MOTION_DOT": 3.007e-05, "MEAN_MOTION_DDOT": 0}, "tle": {"line1": "1 34136U 93036LH  25358.50379711  .00003007  00000+0  37683-3 0  9993", "line2": "2 34136  74.0198  19.4295 0085026 139.1728 338.5493 14.80150320901841"}}, "geometry": {"type": "Point", "coordinates": [16.651988616419136, -4.261067129562035]}}, {"type": "Feature", "properties": {"norad_id": 34139, "name": "COSMOS 2251 DEB", "group": "cosmos-2251-debris", "lat": -28.839072228242017, "lon": 59.20858744163805, "alt_km": 700.614073830543, "timestamp": "2025-12-25T07:00:34.442068+00:00", "meta": {"OBJECT_NAME": "COSMOS 2251 DEB", "OBJECT_ID": "1993-036LL", "EPOCH": "2025-12-24T17:10:19.282944", "MEAN_MOTION": 14.59210163, "ECCENTRICITY": 0.00424254, "INCLINATION": 74.0294, "RA_OF_ASC_NODE": 231.2344, "ARG_OF_PERICENTER": 300.3247, "MEAN_ANOMALY": 122.6243, "EPHEMERIS_TYPE": 0, "CLASSIFICATION_TYPE": "U", "NORAD_CAT_ID": 34139, "ELEMENT_SET_NO": 999, "REV_AT_EPOCH": 88324, "BSTAR": 0.0012978966, "MEAN_MOTION_DOT": 6.174e-05, "MEAN_MOTION_DDOT": 0}, "tle": {"line1": "1 34139U 93036LL  25358.71550096  .00006174  00000+0  12979-2 0  9994", "line2": "2 34139  74.0294 231.2344 0042425 300.3247 122.6243 14.59210163883240"}}, "geometry": {"type": "Point", "coordinates": [59.20858744163805, -28.839072228242017]}}]}